IRIDIUM 57 [-]          
1 25273U 98019B   23349.58557761  .00000340  00000+0  11244-3 0  9992
2 25273  86.3967  15.4168 0002206  92.5255 267.6194 14.35014957346156
IRIDIUM 63 [-]          
1 25286U 98021B   23349.95605576  .00000425  00000+0  14112-3 0  9999
2 25286  86.3972 312.1973 0002071  90.4563 269.6871 14.35525256345024
IRIDIUM 69 [-]          
1 25319U 98026A   23350.00584692  .00000392  00000+0  11900-3 0  9999
2 25319  86.3975 327.1035 0003993  61.4664 298.6936 14.39705474344257
IRIDIUM 71 [-]          
1 25320U 98026B   23349.97756756  .00000465  00000+0  14126-3 0  9991
2 25320  86.3967 321.9253 0004408  93.7738 266.3966 14.40030516344778
IRIDIUM 73 [-]          
1 25344U 98032C   23349.88507557  .00000612  00000+0  15230-3 0  9998
2 25344  86.4414 279.6682 0002882  78.7724 281.3805 14.50188022351212
IRIDIUM 82 [-]          
1 25467U 98051A   23350.12370923  .00007622  00000+0  43065-3 0  9994
2 25467  86.3927  12.5062 0142673 172.5658 187.7742 15.04557786340768
IRIDIUM 2 [-]           
1 25527U 98066A   23350.17529776  .00034629  00000+0  66064-3 0  9995
2 25527  85.5171  60.1400 0002615 324.1955  35.9126 15.47993498378692
